ONEWEB-0290             
1 49080U 21075F   25295.04264874  .00000073  00000+0  15498-3 0  9993
2 49080  87.9114  53.1975 0002258 106.5289 253.6091 13.17649343202259
ONEWEB-0291             
1 49081U 21075G   25295.02746185  .00000037  00000+0  61652-4 0  9996
2 49081  87.9117  53.2062 0001905  89.8066 270.3284 13.17648767202243
ONEWEB-0293             
1 49082U 21075H   25295.05277382 -.00000007  00000+0 -52001-4 0  9995
2 49082  87.9110  53.2267 0001804  99.7856 260.3479 13.17648790202273
ONEWEB-0294             
1 49083U 21075J   25294.78333671 -.00000335  00000+0 -96644-3 0  9993
2 49083  87.8966  38.0130 0002234 100.5342 259.6039 13.12444097203308
ONEWEB-0295             
1 49084U 21075K   25295.05190884 -.00000002  00000+0 -39422-4 0  9995
2 49084  87.9107  53.2315 0001821  88.1453 271.9887 13.17646733202231
ONEWEB-0296             
1 49085U 21075L   25295.22130016  .00000108  00000+0  26498-3 0  9999
2 49085  87.8967  37.9318 0002096  90.7155 269.4213 13.12443848203367
ONEWEB-0297             
1 49086U 21075M   25295.02340493 -.00000180  00000+0 -53460-3 0  9991
2 49086  87.8959  38.0059 0001696  98.6159 261.5162 13.12444357203945
ONEWEB-0298             
1 49087U 21075N   25295.05628650 -.00000022  00000+0 -90174-4 0  9998
2 49087  87.9115  53.2265 0001625  99.9202 260.2113 13.17648973202265
ONEWEB-0299             
1 49088U 21075P   25295.05783247  .00000072  00000+0  15346-3 0  9993
2 49088  87.9119  53.1840 0001627  93.3541 266.7776 13.17648374202243
ONEWEB-0300             
1 49089U 21075Q   25294.78658344 -.00000378  00000+0 -10861-2 0  9999
2 49089  87.8970  38.0087 0001436 107.3949 252.7337 13.12443676203937
ONEWEB-0301             
1 49090U 21075R   25294.99908818 -.00001931  00000+0 -54048-2 0  9999
2 49090  87.8956  37.9697 0001123 124.4640 235.6595 13.12423837203325
ONEWEB-0302             
1 49091U 21075S   25295.21480545  .00000336  00000+0  89877-3 0  9993
2 49091  87.8969  37.9344 0002058  98.6754 261.4608 13.12443794203332
ONEWEB-0304             
1 49092U 21075T   25295.03252350  .00000043  00000+0  78120-4 0  9990
2 49092  87.9118  53.2199 0001715  94.5022 265.6306 13.17648882202218
ONEWEB-0305             
1 49093U 21075U   25295.02577503  .00000078  00000+0  16715-3 0  9999
2 49093  87.9119  53.1979 0001720  85.6165 274.5163 13.17649510202242
ONEWEB-0308             
1 49094U 21075V   25295.20831484  .00000422  00000+0  11364-2 0  9998
2 49094  87.8969  37.9280 0001729 101.9429 258.1893 13.12444584203343
ONEWEB-0309             
1 49095U 21075W   25295.10507954 -.00000032  00000+0 -11447-3 0  9992
2 49095  87.9117  53.1987 0002134  97.1523 262.9851 13.17648014202228
ONEWEB-0310             
1 49096U 21075X   25295.22291899  .00000043  00000+0  82949-4 0  9990
2 49096  87.8960  37.9667 0001860 100.8665 259.2673 13.12441100203979
