[{"OBJECT_NAME":"ONEWEB-0290","OBJECT_ID":"2021-075F","EPOCH":"2025-10-22T01:01:24.851136","MEAN_MOTION":13.17649343,"ECCENTRICITY":0.0002258,"INCLINATION":87.9114,"RA_OF_ASC_NODE":53.1975,"ARG_OF_PERICENTER":106.5289,"MEAN_ANOMALY":253.6091,"EPHEMERIS_TYPE":0,"CLASSIFICATION_TYPE":"U","NORAD_CAT_ID":49080,"ELEMENT_SET_NO":999,"REV_AT_EPOCH":20225,"BSTAR":0.00015498,"MEAN_MOTION_DOT":7.3e-7,"MEAN_MOTION_DDOT":0},{"OBJECT_NAME":"ONEWEB-0291","OBJECT_ID":"2021-075G","EPOCH":"2025-10-22T00:39:32.703840","MEAN_MOTION":13.17648767,"ECCENTRICITY":0.0001905,"INCLINATION":87.9117,"RA_OF_ASC_NODE":53.2062,"ARG_OF_PERICENTER":89.8066,"MEAN_ANOMALY":270.3284,"EPHEMERIS_TYPE":0,"CLASSIFICATION_TYPE":"U","NORAD_CAT_ID":49081,"ELEMENT_SET_NO":999,"REV_AT_EPOCH":20224,"BSTAR":6.1652e-5,"MEAN_MOTION_DOT":3.7e-7,"MEAN_MOTION_DDOT":0},{"OBJECT_NAME":"ONEWEB-0293","OBJECT_ID":"2021-075H","EPOCH":"2025-10-22T01:15:59.658048","MEAN_MOTION":13.1764879,"ECCENTRICITY":0.0001804,"INCLINATION":87.911,"RA_OF_ASC_NODE":53.2267,"ARG_OF_PERICENTER":99.7856,"MEAN_ANOMALY":260.3479,"EPHEMERIS_TYPE":0,"CLASSIFICATION_TYPE":"U","NORAD_CAT_ID":49082,"ELEMENT_SET_NO":999,"REV_AT_EPOCH":20227,"BSTAR":-5.2001e-5,"MEAN_MOTION_DOT":-7.0e-8,"MEAN_MOTION_DDOT":0},{"OBJECT_NAME":"ONEWEB-0294","OBJECT_ID":"2021-075J","EPOCH":"2025-10-21T18:48:00.291744","MEAN_MOTION":13.12444097,"ECCENTRICITY":0.00022342,"INCLINATION":87.8966,"RA_OF_ASC_NODE":38.013,"ARG_OF_PERICENTER":100.5342,"MEAN_ANOMALY":259.6039,"EPHEMERIS_TYPE":0,"CLASSIFICATION_TYPE":"U","NORAD_CAT_ID":49083,"ELEMENT_SET_NO":999,"REV_AT_EPOCH":20330,"BSTAR":-0.00096644037,"MEAN_MOTION_DOT":-3.35e-6,"MEAN_MOTION_DDOT":0},{"OBJECT_NAME":"ONEWEB-0295","OBJECT_ID":"2021-075K","EPOCH":"2025-10-22T01:14:44.923776","MEAN_MOTION":13.17646733,"ECCENTRICITY":0.0001821,"INCLINATION":87.9107,"RA_OF_ASC_NODE":53.2315,"ARG_OF_PERICENTER":88.1453,"MEAN_ANOMALY":271.9887,"EPHEMERIS_TYPE":0,"CLASSIFICATION_TYPE":"U","NORAD_CAT_ID":49084,"ELEMENT_SET_NO":999,"REV_AT_EPOCH":20223,"BSTAR":-3.9422e-5,"MEAN_MOTION_DOT":-2.0e-8,"MEAN_MOTION_DDOT":0},{"OBJECT_NAME":"ONEWEB-0296","OBJECT_ID":"2021-075L","EPOCH":"2025-10-22T05:18:40.333824","MEAN_MOTION":13.12443848,"ECCENTRICITY":0.0002096,"INCLINATION":87.8967,"RA_OF_ASC_NODE":37.9318,"ARG_OF_PERICENTER":90.7155,"MEAN_ANOMALY":269.4213,"EPHEMERIS_TYPE":0,"CLASSIFICATION_TYPE":"U","NORAD_CAT_ID":49085,"ELEMENT_SET_NO":999,"REV_AT_EPOCH":20336,"BSTAR":0.00026498,"MEAN_MOTION_DOT":1.08e-6,"MEAN_MOTION_DDOT":0},{"OBJECT_NAME":"ONEWEB-0297","OBJECT_ID":"2021-075M","EPOCH":"2025-10-22T00:33:42.185952","MEAN_MOTION":13.12444357,"ECCENTRICITY":0.0001696,"INCLINATION":87.8959,"RA_OF_ASC_NODE":38.0059,"ARG_OF_PERICENTER":98.6159,"MEAN_ANOMALY":261.5162,"EPHEMERIS_TYPE":0,"CLASSIFICATION_TYPE":"U","NORAD_CAT_ID":49086,"ELEMENT_SET_NO":999,"REV_AT_EPOCH":20394,"BSTAR":-0.0005346,"MEAN_MOTION_DOT":-1.8e-6,"MEAN_MOTION_DDOT":0},{"OBJECT_NAME":"ONEWEB-0298","OBJECT_ID":"2021-075N","EPOCH":"2025-10-22T01:21:03.153600","MEAN_MOTION":13.17648973,"ECCENTRICITY":0.0001625,"INCLINATION":87.9115,"RA_OF_ASC_NODE":53.2265,"ARG_OF_PERICENTER":99.9202,"MEAN_ANOMALY":260.2113,"EPHEMERIS_TYPE":0,"CLASSIFICATION_TYPE":"U","NORAD_CAT_ID":49087,"ELEMENT_SET_NO":999,"REV_AT_EPOCH":20226,"BSTAR":-9.0174e-5,"MEAN_MOTION_DOT":-2.2e-7,"MEAN_MOTION_DDOT":0},{"OBJECT_NAME":"ONEWEB-0299","OBJECT_ID":"2021-075P","EPOCH":"2025-10-22T01:23:16.725408","MEAN_MOTION":13.17648374,"ECCENTRICITY":0.0001627,"INCLINATION":87.9119,"RA_OF_ASC_NODE":53.184,"ARG_OF_PERICENTER":93.3541,"MEAN_ANOMALY":266.7776,"EPHEMERIS_TYPE":0,"CLASSIFICATION_TYPE":"U","NORAD_CAT_ID":49088,"ELEMENT_SET_NO":999,"REV_AT_EPOCH":20224,"BSTAR":0.00015346,"MEAN_MOTION_DOT":7.2e-7,"MEAN_MOTION_DDOT":0},{"OBJECT_NAME":"ONEWEB-0300","OBJECT_ID":"2021-075Q","EPOCH":"2025-10-21T18:52:40.809216","MEAN_MOTION":13.12443676,"ECCENTRICITY":0.00014367,"INCLINATION":87.897,"RA_OF_ASC_NODE":38.0087,"ARG_OF_PERICENTER":107.3949,"MEAN_ANOMALY":252.7337,"EPHEMERIS_TYPE":0,"CLASSIFICATION_TYPE":"U","NORAD_CAT_ID":49089,"ELEMENT_SET_NO":999,"REV_AT_EPOCH":20393,"BSTAR":-0.0010860702,"MEAN_MOTION_DOT":-3.78e-6,"MEAN_MOTION_DDOT":0},{"OBJECT_NAME":"ONEWEB-0301","OBJECT_ID":"2021-075R","EPOCH":"2025-10-21T23:58:41.218752","MEAN_MOTION":13.12423837,"ECCENTRICITY":0.0001123,"INCLINATION":87.8956,"RA_OF_ASC_NODE":37.9697,"ARG_OF_PERICENTER":124.464,"MEAN_ANOMALY":235.6595,"EPHEMERIS_TYPE":0,"CLASSIFICATION_TYPE":"U","NORAD_CAT_ID":49090,"ELEMENT_SET_NO":999,"REV_AT_EPOCH":20332,"BSTAR":-0.0054048,"MEAN_MOTION_DOT":-1.931e-5,"MEAN_MOTION_DDOT":0},{"OBJECT_NAME":"ONEWEB-0302","OBJECT_ID":"2021-075S","EPOCH":"2025-10-22T05:09:19.190880","MEAN_MOTION":13.12443794,"ECCENTRICITY":0.0002058,"INCLINATION":87.8969,"RA_OF_ASC_NODE":37.9344,"ARG_OF_PERICENTER":98.6754,"MEAN_ANOMALY":261.4608,"EPHEMERIS_TYPE":0,"CLASSIFICATION_TYPE":"U","NORAD_CAT_ID":49091,"ELEMENT_SET_NO":999,"REV_AT_EPOCH":20333,"BSTAR":0.00089877,"MEAN_MOTION_DOT":3.36e-6,"MEAN_MOTION_DDOT":0},{"OBJECT_NAME":"ONEWEB-0304","OBJECT_ID":"2021-075T","EPOCH":"2025-10-22T00:46:50.030400","MEAN_MOTION":13.17648882,"ECCENTRICITY":0.0001715,"INCLINATION":87.9118,"RA_OF_ASC_NODE":53.2199,"ARG_OF_PERICENTER":94.5022,"MEAN_ANOMALY":265.6306,"EPHEMERIS_TYPE":0,"CLASSIFICATION_TYPE":"U","NORAD_CAT_ID":49092,"ELEMENT_SET_NO":999,"REV_AT_EPOCH":20221,"BSTAR":7.812e-5,"MEAN_MOTION_DOT":4.3e-7,"MEAN_MOTION_DDOT":0},{"OBJECT_NAME":"ONEWEB-0305","OBJECT_ID":"2021-075U","EPOCH":"2025-10-22T00:37:06.962592","MEAN_MOTION":13.1764951,"ECCENTRICITY":0.000172,"INCLINATION":87.9119,"RA_OF_ASC_NODE":53.1979,"ARG_OF_PERICENTER":85.6165,"MEAN_ANOMALY":274.5163,"EPHEMERIS_TYPE":0,"CLASSIFICATION_TYPE":"U","NORAD_CAT_ID":49093,"ELEMENT_SET_NO":999,"REV_AT_EPOCH":20224,"BSTAR":0.00016715,"MEAN_MOTION_DOT":7.8e-7,"MEAN_MOTION_DDOT":0},{"OBJECT_NAME":"ONEWEB-0308","OBJECT_ID":"2021-075V","EPOCH":"2025-10-22T04:59:58.402176","MEAN_MOTION":13.12444584,"ECCENTRICITY":0.0001729,"INCLINATION":87.8969,"RA_OF_ASC_NODE":37.928,"ARG_OF_PERICENTER":101.9429,"MEAN_ANOMALY":258.1893,"EPHEMERIS_TYPE":0,"CLASSIFICATION_TYPE":"U","NORAD_CAT_ID":49094,"ELEMENT_SET_NO":999,"REV_AT_EPOCH":20334,"BSTAR":0.0011364,"MEAN_MOTION_DOT":4.22e-6,"MEAN_MOTION_DDOT":0},{"OBJECT_NAME":"ONEWEB-0309","OBJECT_ID":"2021-075W","EPOCH":"2025-10-22T02:31:18.872256","MEAN_MOTION":13.17648014,"ECCENTRICITY":0.0002134,"INCLINATION":87.9117,"RA_OF_ASC_NODE":53.1987,"ARG_OF_PERICENTER":97.1523,"MEAN_ANOMALY":262.9851,"EPHEMERIS_TYPE":0,"CLASSIFICATION_TYPE":"U","NORAD_CAT_ID":49095,"ELEMENT_SET_NO":999,"REV_AT_EPOCH":20222,"BSTAR":-0.00011447,"MEAN_MOTION_DOT":-3.2e-7,"MEAN_MOTION_DDOT":0},{"OBJECT_NAME":"ONEWEB-0310","OBJECT_ID":"2021-075X","EPOCH":"2025-10-22T05:21:00.200736","MEAN_MOTION":13.124411,"ECCENTRICITY":0.000186,"INCLINATION":87.896,"RA_OF_ASC_NODE":37.9667,"ARG_OF_PERICENTER":100.8665,"MEAN_ANOMALY":259.2673,"EPHEMERIS_TYPE":0,"CLASSIFICATION_TYPE":"U","NORAD_CAT_ID":49096,"ELEMENT_SET_NO":999,"REV_AT_EPOCH":20397,"BSTAR":8.2949e-5,"MEAN_MOTION_DOT":4.3e-7,"MEAN_MOTION_DDOT":0}]
